*******************************************************************************
 Revised: Sep 28, 2012             Phobos / (Mars)                          401

 SATELLITE PHYSICAL PROPERTIES:
  Radius (km)             = 13.1 x11.1 x9.3 Density (g cm^-3)   =  1.90 +- 0.08
  Mass (10^20 kg )        =  1.08 (10^-4)   Geometric Albedo    =  0.06 
                                 (+- 0.1)   V(1,0)              = +11.8

 SATELLITE ORBITAL DATA:
  Semi-major axis, a (km) = 9.3772(10^3)    Orbital period      = 0.319 d
  Eccentricity, e         = 0.0151          Rotational period   = Synchronous
  Inclination, i  (deg)   = 1.082
*******************************************************************************
 
 
*******************************************************************************
Ephemeris / WWW_USER Sun May  3 06:38:58 2020 Pasadena, USA      / Horizons    
*******************************************************************************
Target body name: Phobos (401)                    {source: mar097}
Center body name: Sun (10)                        {source: mar097}
Center-site name: BODY CENTER
*******************************************************************************
Start time      : A.D. 2020-Apr-25 00:00:00.0000 TDB
Stop  time      : A.D. 2021-May-25 00:00:00.0000 TDB
Step-size       : 60 minutes
*******************************************************************************
Center geodetic : 0.00000000,0.00000000,0.0000000 {E-lon(deg),Lat(deg),Alt(km)}
Center cylindric: 0.00000000,0.00000000,0.0000000 {E-lon(deg),Dxy(km),Dz(km)}
Center radii    : 696000.0 x 696000.0 x 696000.0 k{Equator, meridian, pole}    
Keplerian GM    : 1.3271244004194000E+11 km^3/s^2
Output units    : KM-S, deg, Julian Day Number (Tp)                            
Output type     : GEOMETRIC osculating elements
Output format   : 10
Reference frame : ICRF/J2000.0                                                 
Coordinate systm: Ecliptic and Mean Equinox of Reference Epoch                 
*******************************************************************************
            JDTDB,            Calendar Date (TDB),                     EC,                     QR,                     IN,                     OM,                      W,                     Tp,                      N,                     MA,                     TA,                      A,                     AD,                     PR,
**************************************************************************************************************************************************************************************************************************************************************************************************************************************************
$$SOE
2459350.375000000, A.D. 2021-May-15 21:00:00.0000,  2.484802542556822E-01,  1.493787157132445E+08,  2.289768858780788E+00,  3.468064760946659E+00,  3.178739172572900E+02,  2.459097401060442E+06,  7.448279432811217E-06,  1.627966590666838E+02,  1.692679823939617E+02,  1.987688501322041E+08,  2.481589845511637E+08,  4.833331016209264E+07,
2459350.416666667, A.D. 2021-May-15 22:00:00.0000,  2.169738504288624E-01,  1.637689322670761E+08,  1.935086708573985E+00,  6.007709961141611E+01,  2.781985394384527E+02,  2.459117340639190E+06,  6.900738524086016E-06,  1.389654767676446E+02,  1.523836696473760E+02,  2.091487396133222E+08,  2.545285469595683E+08,  5.216832933800821E+07,
2459350.458333333, A.D. 2021-May-15 23:00:00.0000,  1.408736440802226E-01,  2.010295276984392E+08,  2.869208682831467E+00,  9.117976296819330E+01,  2.794845827086194E+02,  2.459141411923198E+06,  5.831418825313214E-06,  1.053248116116933E+02,  1.200380208076423E+02,  2.339929700832163E+08,  2.669564124679935E+08,  6.173454707751400E+07,
2459350.500000000, A.D. 2021-May-16 00:00:00.0000,  1.046937192534660E-01,  2.347759566020019E+08,  3.083273063726832E+00,  9.439081143109466E+01,  3.355181071818409E+02,  2.459231012860252E+06,  4.915361551733086E-06,  5.074466336443090E+01,  6.081709456731564E+01,  2.622297661156118E+08,  2.896835756292217E+08,  7.323978027070443E+07,
2459350.541666667, A.D. 2021-May-16 01:00:00.0000,  9.372394648500437E-02,  2.461634555528257E+08,  2.344675312117804E+00,  7.953290506862550E+01,  3.751474932878995E+01,  2.459322477257977E+06,  4.662660956638843E-06,  1.130585667867277E+01,  1.368233417538136E+01,  2.716208318625210E+08,  2.970782081722163E+08,  7.720913086923482E+07,
2459350.583333333, A.D. 2021-May-16 02:00:00.0000,  3.923886540184167E-02,  2.413263451927862E+08,  1.856260453235262E+00,  3.057698675316689E+01,  1.655293572579946E+02,  2.459486005381001E+06,  5.243176595949337E-06,  2.986523961779540E+02,  2.946149786849979E+02,  2.511824599292536E+08,  2.610385746657211E+08,  6.866066656578404E+07,
2459350.625000000, A.D. 2021-May-16 03:00:00.0000,  1.262937111456491E-01,  1.927966912422858E+08,  2.674485504510213E+00,  3.538079940930846E+02,  2.987552468980501E+02,  2.459635813148678E+06,  6.367622045003360E-06,  2.031001624082581E+02,  1.981510340204289E+02,  2.206653353669811E+08,  2.485339794916764E+08,  5.653601885534178E+07,
2459350.666666667, A.D. 2021-May-16 04:00:00.0000,  2.243007412050831E-01,  1.563570119729638E+08,  2.864812186133208E+00,  3.503409136089759E+02,  3.218713160272115E+02,  2.459068651392882E+06,  7.293608881861662E-06,  1.777169467322879E+02,  1.785155736346006E+02,  2.015691135452047E+08,  2.467812151174457E+08,  4.935828145313319E+07,
2459350.708333333, A.D. 2021-May-16 05:00:00.0000,  2.463536942944473E-01,  1.510343809516395E+08,  1.965826330990351E+00,  1.900704736285643E+01,  3.074749777609507E+02,  2.459106842545900E+06,  7.357259621827980E-06,  1.550174899131183E+02,  1.642862612551744E+02,  2.004048580988443E+08,  2.497753352460490E+08,  4.893126225040766E+07,
2459350.750000000, A.D. 2021-May-16 06:00:00.0000,  1.921824997420651E-01,  1.747724448272521E+08,  2.241305492735851E+00,  7.626254756555927E+01,  2.704704672189128E+02,  2.459122214015853E+06,  6.559019065399154E-06,  1.295111701858031E+02,  1.440849173674451E+02,  2.163513971552332E+08,  2.579303494832142E+08,  5.488625607129440E+07,
2459350.791666667, A.D. 2021-May-16 07:00:00.0000,  1.198670373441613E-01,  2.149678943209119E+08,  3.066436878346181E+00,  9.428514763052652E+01,  2.947793067606216E+02,  2.459164262775762E+06,  5.468150706145996E-06,  8.812524267483903E+01,  1.017905060786368E+02,  2.442447941868204E+08,  2.735216940527290E+08,  6.583578605384331E+07,
2459350.833333333, A.D. 2021-May-16 08:00:00.0000,  1.040937148768321E-01,  2.407861093775225E+08,  2.903755859377676E+00,  9.186235085154445E+01,  3.569154467806295E+02,  2.459266434034006E+06,  4.737237738054015E-06,  3.454440876057282E+01,  4.209357065940440E+01,  2.687626076252156E+08,  2.967391058729088E+08,  7.599365282179876E+07,
2459350.875000000, A.D. 2021-May-16 09:00:00.0000,  7.739113828467868E-02,  2.467840046392311E+08,  2.034485851352726E+00,  6.691168961082631E+01,  6.551257499177400E+01,  2.459354094404376E+06,  4.771219217159984E-06,  3.586728541801263E+02,  3.584455696871778E+02,  2.674849710205562E+08,  2.881859374018813E+08,  7.545241239497817E+07,
2459350.916666667, A.D. 2021-May-16 10:00:00.0000,  5.234694271800888E-02,  2.278694578547425E+08,  2.071993513366526E+00,  1.276994767806393E+01,  2.408496874925995E+02,  2.459594080862961E+06,  5.597876630271059E-06,  2.423920459604666E+02,  2.372400635862288E+02,  2.404566271419054E+08,  2.530437964290684E+08,  6.431009894953118E+07,
2459350.958333333, A.D. 2021-May-16 11:00:00.0000,  1.660798924642273E-01,  1.769911154742422E+08,  2.899860439921088E+00,  3.499296794863263E+02,  3.112188861710806E+02,  2.459636665458657E+06,  6.750530727750180E-06,  1.933625034461803E+02,  1.897091893006961E+02,  2.122398942954494E+08,  2.474886731166566E+08,  5.332914025857355E+07,
2459351.000000000, A.D. 2021-May-16 12:00:00.0000,  2.418074665837344E-01,  1.509634716855780E+08,  2.609265906310988E+00,  3.553225732872751E+02,  3.218327045355235E+02,  2.459086088048318E+06,  7.429163088965065E-06,  1.700416016579151E+02,  1.737259130606487E+02,  1.991096786529492E+08,  2.472558856203204E+08,  4.845767897257867E+07,
2459351.041666667, A.D. 2021-May-16 13:00:00.0000,  2.347032014801244E-01,  1.561812192758656E+08,  1.826350401181715E+00,  4.069871294422330E+01,  2.915652555611281E+02,  2.459113398378020E+06,  7.159456931160949E-06,  1.470006912997608E+02,  1.586637428929581E+02,  2.040792795395570E+08,  2.519773398032483E+08,  5.028314346485269E+07,
2459351.083333333, A.D. 2021-May-16 14:00:00.0000,  1.646196499490586E-01,  1.880059660048130E+08,  2.594809677253441E+00,  8.621951839628825E+01,  2.714927810426011E+02,  2.459129601579569E+06,  6.182261716206064E-06,  1.183039056404829E+02,  1.332625657655818E+02,  2.250543312316940E+08,  2.621026964585750E+08,  5.823111613930915E+07,
2459351.125000000, A.D. 2021-May-16 15:00:00.0000,  1.077160231461251E-01,  2.268327287877850E+08,  3.130723451464855E+00,  9.528019059227374E+01,  3.153750114936913E+02,  2.459197467332164E+06,  5.149612078923007E-06,  6.836636583116018E+01,  8.034974951625342E+01,  2.542158490703597E+08,  2.815989693529344E+08,  6.990817841861412E+07,
2459351.166666667, A.D. 2021-May-16 16:00:00.0000,  1.013736775816492E-01,  2.444542925524328E+08,  2.627365779595749E+00,  8.691066876597452E+01,  1.774615378524414E+01,  2.459297593273509E+06,  4.652117244275952E-06,  2.153344661061288E+01,  2.635765755300820E+01,  2.720310839488500E+08,  2.996078753452672E+08,  7.738412019665894E+07,
2459351.208333333, A.D. 2021-May-16 17:00:00.0000,  5.520783435911145E-02,  2.456895500011028E+08,  1.845916427949911E+00,  4.885937729862815E+01,  1.062666491261376E+02,  2.459401498666970E+06,  4.977403481740073E-06,  3.383727596577874E+02,  3.358825108250273E+02,  2.600461338864322E+08,  2.744027177717617E+08,  7.232686707450648E+07,
